HAWK-2B                 
1 47508U 21006CZ  26068.67629241  .00009474  00000+0  29651-3 0  9991
2 47508  97.2334 114.1140 0007102 185.9063 174.2098 15.33301353284246
STARLINK-32860          
1 62856U 25022C   26068.54191695  .00028769  00000+0  97989-3 0  9996
2 62856  53.1579 130.5728 0001109  78.3307 281.7818 15.30194069 61879
